STARLINK-31466          
1 59420U 24064Y   26068.31033140  .00002868  00000+0  11378-3 0  9999
2 59420  43.0047  58.6662 0001868 251.4597 108.6052 15.27564482109162
FOSSASAT-2E20 (TAT-O)   
1 63003U 25009DN  26068.70855016  .00016337  00000+0  61863-3 0  9998
2 63003  97.3231 146.2859 0002189 347.5575  12.5610 15.26991080121314
